P/2011 Y2 (Boattini),e,6.3929,309.3196,132.0907,6.226231,0.0634404,0.71117339,317.4787,12/01.0/2025,2000,g 15.0,4.0
# From MPC 93583
C/2012 A1 (PANSTARRS),e,121.0099,277.8715,191.9329,17121,0.0000004,0.99955547,0.0000,11/29.5802/2013,2000,g  6.0,4.0
# From unp
P/2012 A3 (SOHO),e,11.0157,174.5583,219.8265,2.584217,0.2372524,0.77008088,122.2614,12/01.0/2025,2000,g 17.0,4.0
# From MPEC 2022-K19
P/2012 B1 (PANSTARRS),e,7.6051,36.2085,161.8697,6.544239,0.0588729,0.41038126,268.3019,12/01.0/2025,2000,g  9.0,4.0
# From MPC 84931
P/2012 F2 (PANSTARRS),e,14.6962,226.9211,33.1753,6.349678,0.0615994,0.54106168,285.8794,12/01.0/2025,2000,g 12.0,4.0
# From MPEC 2022-ED3
P/2012 G1 (PANSTARRS),e,12.1683,283.2321,266.0129,4.161825,0.1160856,0.32981294,219.2584,12/01.0/2025,2000,g 15.0,4.0
# From MPC103843
C/2012 K1 (PANSTARRS),e,142.5821,317.7620,203.1860,7130,0.0000016,0.99985154,0.0000,08/23.2926/2014,2000,g  5.6,3.2
# From MPC 80898
P/2012 K3 (Gibbs),e,13.1814,125.8022,172.1182,3.633455,0.1423064,0.42173221,327.7171,12/01.0/2025,2000,g 15.0,4.0
# From MPC100577
C/2012 K8 (Lemmon),h,08/20.8526/2014,105.9817,312.7294,75.8506,1.000877,6.460437,2000,6.0,4.0
# From MPC112389
C/2012 LP26 (Palomar),h,08/12.8539/2015,25.3589,154.0820,145.3438,1.001573,6.572885,2000,6.5,4.0
# From MPC 81470
P/2012 O1 (McNaught),e,7.4280,91.9400,238.2769,3.542702,0.1478095,0.59349418,4.4176,12/01.0/2025,2000,g 17.5,4.0
# From MPC 80899
P/2012 O2 (McNaught),e,24.4556,120.6588,183.3976,3.630786,0.1424633,0.53127216,342.6914,12/01.0/2025,2000,g 17.0,4.0
# From MPC115880
C/2012 Q1 (Kowalski),e,45.1629,184.4716,139.5092,26.23245,0.0073358,0.63636077,37.0252,12/01.0/2025,2000,g  4.0,4.0
# From MPEC 2025-W75
C/2012 S1 (ISON),h,11/28.1964/2013,58.4986,297.0080,345.1300,1.000003,0.014272,2000,8.5,3.2
# From MPC 80900
P/2012 T3 (PANSTARRS),e,9.5535,114.3205,195.4398,6.161141,0.0644484,0.61558723,320.2416,12/01.0/2025,2000,g 15.0,4.0
# From MPC108592
C/2012 X1 (LINEAR),e,44.2884,113.3499,132.1673,159.6174,0.0004887,0.98987651,0.0000,02/15.3209/2014,2000,g  4.8,3.6
# From MPC103843
C/2013 A1 (Siding Spring),h,10/26.5708/2014,128.7638,301.1972,2.5699,1.000109,1.401477,2000,8.2,2.4
# From MPEC 2025-UQ3
C/2013 C2 (Tenagra),e,21.3732,247.5838,308.7407,15.87316,0.0155851,0.42585555,58.3879,12/01.0/2025,2000,g  4.0,4.0
# From MPEC 2013-Y32
P/2013 CU129 (PANSTARRS),e,11.8371,45.6908,212.9535,2.903287,0.1992366,0.71617014,186.1959,12/01.0/2025,2000,g 18.0,2.0
# From MPC 90270
C/2013 E1 (McNaught),e,158.7123,133.8265,311.3577,7022,0.0000017,0.99889474,0.0000,06/10.4312/2013,2000,g  5.5,4.0
# From MPC 91612
P/2013 G1 (Kowalski),e,5.4569,221.3105,51.3193,6.908947,0.0542733,0.51009405,238.5088,12/01.0/2025,2000,g 11.0,4.0
# From MPC 84025
P/2013 G4 (PANSTARRS),e,5.9201,339.5874,214.5100,4.432034,0.1056329,0.40963297,133.1554,12/01.0/2025,2000,g 15.0,4.0
# From MPC 91613
P/2013 J2 (McNaught),e,15.4995,289.2831,37.8352,6.231605,0.0633584,0.65568617,284.0437,12/01.0/2025,2000,g 13.0,4.0
# From MPC111767
C/2013 P3 (Palomar),h,11/25.3052/2014,93.8491,177.3524,177.3572,1.002263,8.689381,2000,5.5,4.0
# From MPC 96865
C/2013 P4 (PANSTARRS),e,4.2599,256.4917,113.8904,14.78399,0.0173387,0.59413594,71.6146,12/01.0/2025,2000,g  7.5,4.0
# From MPEC 2022-V95
P/2013 R3 (Catalina-PANSTARRS),e,0.8664,341.7433,11.4012,3.031069,0.1867714,0.27792087,115.8077,12/01.0/2025,2000,g 14.0,4.0
# From MPC 86643
P/2013 T2 (Schwartz),e,9.4463,0.7991,345.5612,3.493764,0.1509259,0.50013166,330.9627,12/01.0/2025,2000,g 16.0,4.0
# From MPC110080
C/2013 US10 (Catalina),h,11/12.2670/2015,148.9038,186.2155,340.2585,1.000142,0.814536,2000,4.4,4.0
# From MPC111767
C/2013 V4 (Catalina),h,10/10.3150/2015,67.9880,55.5543,40.4368,1.000370,5.182258,2000,6.0,4.0
# From MPC 91613
P/2013 W1 (PANSTARRS),e,4.7002,117.8372,1.2620,3.484171,0.1515496,0.59391465,288.7838,12/01.0/2025,2000,g 17.5,4.0
# From MPC109141
C/2013 W2 (PANSTARRS),e,4.8520,178.2714,303.8776,9.613131,0.0330679,0.54783014,132.9262,12/01.0/2025,2000,g 13.5,2.0
# From MPC111767
C/2013 X1 (PANSTARRS),h,04/23.5675/2016,163.0779,132.0425,165.4855,1.000954,1.314082,2000,10.5,2.0
# From MPC101095
P/2013 YG46 (Spacewatch),e,7.2483,43.1000,248.4494,3.248708,0.1683209,0.47764309,174.2032,12/01.0/2025,2000,g 10.0,4.0
# From MPC108592
C/2014 A4 (SONEAR),h,09/05.4308/2015,121.3595,29.6839,356.8716,1.000043,4.206151,2000,6.0,4.0
# From MPEC 2022-HC2
C/2014 B1 (Schwartz),h,09/09.0465/2017,28.3854,161.3050,345.7188,1.000160,9.533967,2000,4.0,4.0
# From MPEC 2024-F34
P/2014 C1 (TOTAS),e,3.1994,39.6870,188.0773,4.034376,0.1216297,0.34027276,244.9929,12/01.0/2025,2000,g 15.5,4.0
# From MPC181177
C/2014 F3 (Sheppard-Trujillo),e,6.5209,325.9837,5.1152,14.37388,0.0180860,0.60119378,29.8272,12/01.0/2025,2000,g  6.0,4.0
# From MPC 98560
P/2014 L2 (NEOWISE),e,5.1889,149.3290,182.6725,6.314204,0.0621192,0.64594510,258.2784,12/01.0/2025,2000,g 12.0,4.0
# From MPEC 2022-M88
C/2014 M2 (Christensen),e,32.3321,245.4045,40.4347,1314,0.0000207,0.99471973,0.0000,07/07.9273/2014,2000,g  6.0,4.0
# From MPC 98560
P/2014 O3 (PANSTARRS),e,7.7889,87.6239,204.5903,7.588566,0.0471481,0.38236409,201.0250,12/01.0/2025,2000,g 10.5,4.0
# From MPEC 2021-J28
C/2014 OE4 (PANSTARRS),h,12/07.0764/2016,81.2452,240.4529,65.8607,1.000225,6.261496,2000,11.0,2.0
# From MPEC 2025-W75
C/2014 OG392 (PANSTARRS),e,9.0321,145.8293,255.4723,12.25454,0.0229752,0.18494383,32.6834,12/01.0/2025,2000,g 10.9,4.0
# From MPC115880
C/2014 Q2 (Lovejoy),e,80.7050,94.8446,12.3300,400.8927,0.0001228,0.99679756,0.0000,01/30.8961/2015,2000,g  2.7,10.0
# From MPEC 2021-F20
C/2014 R3 (PANSTARRS),e,90.7819,333.9896,113.3365,82958,0.0000000,0.99991246,0.0000,08/08.9665/2016,2000,g  6.5,4.0
# From MPEC 2025-WD0
C/2014 UN271 (Bernardinelli-Bernstein),h,01/16.1550/2031,95.4459,189.9793,326.0743,1.004350,10.960683,2000,2.5,3.2
# From MPC 95211
P/2014 V1 (PANSTARRS),e,22.4963,166.1701,177.6336,5.482567,0.0767765,0.53328608,304.2120,12/01.0/2025,2000,g 14.0,4.0
# From MPC105542
P/2014 W4 (PANSTARRS),e,15.2827,33.2859,67.7987,6.578545,0.0584130,0.35523444,211.0261,12/01.0/2025,2000,g 11.0,4.0
# From MPC 99270
P/2015 B1 (PANSTARRS),e,18.0946,352.8419,188.6496,9.471380,0.0338130,0.36722029,126.3791,12/01.0/2025,2000,g  8.5,4.0
# From MPC 98561
C/2015 D2 (PANSTARRS),e,31.9235,162.7229,292.3283,12.79557,0.0215335,0.56200627,95.6032,12/01.0/2025,2000,g  8.0,4.0
# From MPEC 2020-L06
C/2015 D3 (PANSTARRS),e,128.5683,156.9011,2.6260,12468,0.0000007,0.99934777,0.0000,04/25.2516/2016,2000,g  5.5,4.0
# From MPC109141
P/2015 D5 (Kowalski),e,20.5483,74.0825,39.6547,8.943987,0.0368474,0.49205192,156.6224,12/01.0/2025,2000,g  9.0,4.0
# From MPEC 2024-R10
P/2015 D6 (Lemmon-PANSTARRS),e,20.3335,45.2906,125.9812,7.117191,0.0519088,0.36306223,197.3885,12/01.0/2025,2000,g 10.5,4.0
# From MPEC 2021-F20
C/2015 ER61 (PANSTARRS),e,6.3063,234.9338,68.8007,476.6063,0.0000947,0.99776851,0.0000,05/05.5832/2017,2000,g 11.0,2.0
# From MPC107684
P/2015 M2 (PANSTARRS),e,3.9677,86.6979,225.5998,7.255826,0.0504282,0.17761946,189.0712,12/01.0/2025,2000,g  8.5,4.0
# From MPEC 2021-P47
C/2015 O1 (PANSTARRS),h,02/18.3829/2018,27.1055,299.7049,89.8412,1.001798,3.745691,2000,6.5,4.0
# From MPEC 2022-K19
P/2015 PD229 (Cameron-ISON),e,2.0195,342.7501,352.6392,7.209585,0.0509142,0.32471006,191.9266,12/01.0/2025,2000,g 11.5,2.0
# From MPC 95734
P/2015 R2 (PANSTARRS),e,15.4828,168.6022,149.8776,4.478987,0.1039763,0.45185290,36.4229,12/01.0/2025,2000,g 14.5,4.0
# From MPC102097
C/2015 T5 (Sheppard-Tholen),e,11.0197,311.2519,62.2221,28.44820,0.0064956,0.67004635,23.3338,12/01.0/2025,2000,g  7.5,4.0
# From MPEC 2025-WD0
P/2015 TO19 (Lemmon-PANSTARRS),e,6.5049,321.6056,89.4395,4.547152,0.1016471,0.35980377,0.7161,12/01.0/2025,2000,g 14.0,4.0
# From MPC110080
P/2015 TP200 (LINEAR),e,8.7773,6.8772,82.6485,7.263146,0.0503520,0.53731240,166.8509,12/01.0/2025,2000,g 11.0,4.0
# From MPC115881
C/2015 V1 (PANSTARRS),e,139.1846,197.3070,179.9086,66370,0.0000001,0.99993536,0.0000,12/18.9774/2017,2000,g  6.5,4.0
# From MPC112390
C/2015 V2 (Johnson),h,06/08.9083/2017,49.7835,70.0529,164.7498,1.000810,1.636719,2000,5.0,4.0
# From MPC104791
C/2015 V4 (PANSTARRS),e,60.7749,179.7981,306.7752,18.43066,0.0124564,0.70531796,42.0957,12/01.0/2025,2000,g  8.5,4.0
# From MPEC 2022-OB6
C/2015 XY1 (Lemmon),h,04/27.5341/2018,148.8592,281.5252,196.3141,1.001248,7.950226,2000,5.5,4.0
# From MPEC 2023-J29
P/2015 X3 (PANSTARRS),e,24.4212,77.2526,306.9940,4.996054,0.0882599,0.43968722,331.1627,12/01.0/2025,2000,g 15.0,4.0
# From MPC119995
C/2015 X5 (PANSTARRS),h,12/28.0492/2017,124.3784,122.2030,27.6704,1.000341,6.811799,2000,7.5,4.0
# From MPC115881
P/2015 X6 (PANSTARRS),e,4.5662,106.9296,329.5754,2.752442,0.2158375,0.17409039,44.0424,12/01.0/2025,2000,g 16.0,4.0
# From MPEC 2022-O08
C/2016 A1 (PANSTARRS),e,121.2760,128.0113,10.1696,9511,0.0000011,0.99943961,0.0000,11/20.0083/2017,2000,g  6.0,4.0
# From MPEC 2022-OB6
P/2016 A3 (PANSTARRS),e,8.5244,187.1116,340.8106,7.865832,0.0446773,0.38739467,140.2563,12/01.0/2025,2000,g 10.0,4.0
# From MPC102098
P/2016 A7 (PANSTARRS),e,16.1455,220.0513,353.0696,5.082833,0.0860093,0.56918825,313.3257,12/01.0/2025,2000,g 16.0,4.0
# From MPEC 2020-L06
C/2016 C1 (PANSTARRS),h,02/18.0129/2016,56.2096,181.7305,328.5091,1.001385,8.428049,2000,5.5,4.0
# From MPEC 2020-L06
C/2016 E1 (PANSTARRS),h,05/27.8179/2017,131.8666,233.1450,47.2319,1.001640,8.160051,2000,6.5,4.0
# From MPEC 2021-P47
P/2016 G1 (PANSTARRS),e,10.9705,204.0088,111.0777,2.583323,0.2373755,0.20990509,47.2125,12/01.0/2025,2000,g 14.0,4.0
# From MPEC 2022-ED3
C/2016 M1 (PANSTARRS),e,90.7309,92.2985,209.8454,2341,0.0000087,0.99905500,0.0000,08/08.0953/2018,2000,g  5.0,4.0
# From MPEC 2021-P47
C/2016 N6 (PANSTARRS),e,105.9407,298.7277,162.6529,984.6005,0.0000319,0.99728576,0.0000,07/16.1715/2018,2000,g  7.0,4.0
# From MPC102099
P/2016 P1 (PANSTARRS),e,24.4872,318.9545,271.2363,3.201756,0.1720370,0.28689535,280.7438,12/01.0/2025,2000,g 15.0,4.0
# From MPEC 2025-W75
